STARLINK-36268          
1 67199U 25304H   26183.26033074  .00002484  00000+0  21586-3 0  9993
2 67199  70.0003 245.6844 0003543 268.8508  91.2245 14.98335614 31033
STARLINK-36270          
1 67200U 25304J   26183.30204598  .00002138  00000+0  18686-3 0  9995
2 67200  70.0001 245.4375 0003503 270.4401  89.6357 14.98334137 31054
STARLINK-36262          
1 67201U 25304K   26183.26852407  .00003940  00000+0  33783-3 0  9996
2 67201  69.9999 245.7174 0003805 268.9784  91.0939 14.98332065 31049
STARLINK-36263          
1 67202U 25304L   26183.25601499 -.00008121  00000+0 -67420-3 0  9992
2 67202  69.9999 245.6726 0003203 275.3777  84.7017 14.98293980 31046
STARLINK-36224          
1 67203U 25304M   26183.31440252  .00002695  00000+0  23354-3 0  9994
2 67203  69.9992 245.4663 0003620 268.5804  91.4940 14.98334846 31054
STARLINK-36185          
1 67204U 25304N   26183.29770562  .00001443  00000+0  12867-3 0  9999
2 67204  69.9997 245.4138 0003819 268.4322  91.6400 14.98333387 31053
STARLINK-36197          
1 67205U 25304P   26183.28518229  .00002100  00000+0  18371-3 0  9996
2 67205  70.0003 245.3718 0003325 264.4650  95.6130 14.98336946 31025
STARLINK-36056          
1 67206U 25304Q   26183.26867865  .00002427  00000+0  21106-3 0  9990
2 67206  69.9997 245.7127 0003707 270.1281  89.9454 14.98335802 31015
STARLINK-36225          
1 67207U 25304R   26183.25198177  .00002974  00000+0  25688-3 0  9999
2 67207  69.9993 245.6520 0003808 268.5366  91.5357 14.98335666 31047
STARLINK-36265          
1 67208U 25304S   26183.26433931  .00003003  00000+0  25932-3 0  9997
2 67208  69.9998 245.7033 0003120 270.7916  89.2885 14.98337961 31046
STARLINK-36226          
1 67209U 25304T   26183.27685990  .00002634  00000+0  22844-3 0  9991
2 67209  70.0001 245.7471 0003792 269.8695  90.2030 14.98337503 31045
STARLINK-36173          
1 67210U 25304U   26183.31021590 -.00006789  00000+0 -56171-3 0  9995
2 67210  70.0002 245.4584 0003457 272.5240  87.5523 14.98331359 31055
STARLINK-36280          
1 67211U 25304V   26183.30188021  .00001396  00000+0  12476-3 0  9995
2 67211  69.9993 245.4304 0003559 270.7951  89.2800 14.98332873 31053
STARLINK-36213          
1 67212U 25304W   26183.29353049  .00002274  00000+0  19830-3 0  9995
2 67212  70.0003 245.3996 0003834 269.1249  90.9470 14.98335164 31051
STARLINK-36199          
1 67213U 25304X   26183.28100673  .00004214  00000+0  36072-3 0  9991
2 67213  70.0001 245.3558 0003591 266.2159  93.8589 14.98329621 31056
STARLINK-36203          
1 67214U 25304Y   26183.27285088  .00002815  00000+0  24359-3 0  9995
2 67214  69.9999 245.7274 0003617 269.5716  90.5029 14.98337781 31041
STARLINK-36221          
1 67215U 25304Z   26183.26450907  .00005901  00000+0  50181-3 0  9990
2 67215  69.9995 245.6965 0003313 269.2558  90.8221 14.98341806 31048
STARLINK-36212          
1 67216U 25304AA  26183.25615612  .00003012  00000+0  26003-3 0  9993
2 67216  70.0000 245.6672 0003755 268.8347  91.2381 14.98336371 31048
STARLINK-36216          
1 67217U 25304AB  26183.31456774  .00002617  00000+0  22702-3 0  9995
2 67217  70.0000 245.4698 0003616 268.1327  91.9418 14.98334967 31049
STARLINK-36211          
1 67218U 25304AC  26183.30621943  .00002432  00000+0  21155-3 0  9993
2 67218  69.9996 245.4392 0003797 267.8232  92.2492 14.98333912 31026
STARLINK-36490          
1 67305U 26002A   26182.99399918  .00021608  00000+0  79254-3 0  9993
2 67305  43.0038  39.4489 0001450 281.3615  78.7073 15.27575644 28620
STARLINK-36488          
1 67306U 26002B   26182.90689630  .00026793  00000+0  97857-3 0  9997
2 67306  43.0024  40.5201 0001514 271.0543  89.0135 15.27614818 28540
STARLINK-36481          
1 67307U 26002C   26182.89277253  .00020721  00000+0  76019-3 0  9992
2 67307  43.0006  40.4120 0001186 273.2876  86.7840 15.27588108 28547
STARLINK-36449          
1 67308U 26002D   26182.88505514  .00023361  00000+0  85495-3 0  9997
2 67308  42.9997  40.3510 0001494 274.0978  85.9703 15.27611213 28601
STARLINK-36482          
1 67309U 26002E   26182.88119878  .00024984  00000+0  91344-3 0  9994
2 67309  43.0004  40.3204 0001308 269.0528  91.0174 15.27613105 28547
STARLINK-36491          
1 67310U 26002F   26182.96842910  .00032749  00000+0  11932-2 0  9997
2 67310  43.0013  40.1248 0001735 279.2918  80.7737 15.27610757 28556
STARLINK-36495          
1 67311U 26002G   26182.87091861  .00025815  00000+0  94403-3 0  9990
2 67311  43.0021  40.2421 0001190 254.8345 105.2375 15.27590930 28706
STARLINK-36485          
1 67312U 26002H   26182.98754795  .00015701  00000+0  57818-3 0  9997
2 67312  43.0058  39.3963 0002373 281.0355  79.0230 15.27619282 28568
STARLINK-36445          
1 67313U 26002J   26182.91075151  .00025007  00000+0  91500-3 0  9999
2 67313  43.0015  40.5475 0001324 279.0566  81.0136 15.27586002 28707
STARLINK-36476          
1 67314U 26002K   26182.88891009  .00033989  00000+0  12375-2 0  9994
2 67314  42.9998  40.3781 0000688 277.4988  82.5785 15.27619526 28531
