OBJECT_NAME,OBJECT_ID,EPOCH,MEAN_MOTION,ECCENTRICITY,INCLINATION,RA_OF_ASC_NODE,ARG_OF_PERICENTER,MEAN_ANOMALY,EPHEMERIS_TYPE,CLASSIFICATION_TYPE,NORAD_CAT_ID,ELEMENT_SET_NO,REV_AT_EPOCH,BSTAR,MEAN_MOTION_DOT,MEAN_MOTION_DDOT
STARLINK-36268,2025-304H,2026-07-02T06:14:52.575936,14.98335614,.00035435,70.0003,245.6844,268.8508,91.2245,0,U,67199,999,3103,.21586181E-3,.2484E-4,0
STARLINK-36270,2025-304J,2026-07-02T07:14:56.772672,14.98334137,.00035031,70.0001,245.4375,270.4401,89.6357,0,U,67200,999,3105,.18686318E-3,.2138E-4,0
STARLINK-36262,2025-304K,2026-07-02T06:26:40.479648,14.98332065,.00038053,69.9999,245.7174,268.9784,91.0939,0,U,67201,999,3104,.33782693E-3,.394E-4,0
STARLINK-36263,2025-304L,2026-07-02T06:08:39.695136,14.98293980,.00032035,69.9999,245.6726,275.3777,84.7017,0,U,67202,999,3104,-.67420254E-3,-.8121E-4,0
STARLINK-36224,2025-304M,2026-07-02T07:32:44.377728,14.98334846,.00036207,69.9992,245.4663,268.5804,91.4940,0,U,67203,999,3105,.23353698E-3,.2695E-4,0
STARLINK-36185,2025-304N,2026-07-02T07:08:41.765568,14.98333387,.00038199,69.9997,245.4138,268.4322,91.6400,0,U,67204,999,3105,.12866758E-3,.1443E-4,0
STARLINK-36197,2025-304P,2026-07-02T06:50:39.749856,14.98336946,.00033252,70.0003,245.3718,264.4650,95.6130,0,U,67205,999,3102,.18370953E-3,.21E-4,0
STARLINK-36056,2025-304Q,2026-07-02T06:26:53.835360,14.98335802,.00037076,69.9997,245.7127,270.1281,89.9454,0,U,67206,999,3101,.21105503E-3,.2427E-4,0
STARLINK-36225,2025-304R,2026-07-02T06:02:51.224928,14.98335666,.00038089,69.9993,245.6520,268.5366,91.5357,0,U,67207,999,3104,.25688139E-3,.2974E-4,0
STARLINK-36265,2025-304S,2026-07-02T06:20:38.916384,14.98337961,.00031206,69.9998,245.7033,270.7916,89.2885,0,U,67208,999,3104,.25931966E-3,.3003E-4,0
STARLINK-36226,2025-304T,2026-07-02T06:38:40.695360,14.98337503,.00037924,70.0001,245.7471,269.8695,90.2030,0,U,67209,999,3104,.22843593E-3,.2634E-4,0
STARLINK-36173,2025-304U,2026-07-02T07:26:42.653760,14.98331359,.00034579,70.0002,245.4584,272.5240,87.5523,0,U,67210,999,3105,-.56171273E-3,-.6789E-4,0
STARLINK-36280,2025-304V,2026-07-02T07:14:42.450144,14.98332873,.00035599,69.9993,245.4304,270.7951,89.2800,0,U,67211,999,3105,.12476469E-3,.1396E-4,0
STARLINK-36213,2025-304W,2026-07-02T07:02:41.034336,14.98335164,.00038343,70.0003,245.3996,269.1249,90.9470,0,U,67212,999,3105,.19829794E-3,.2274E-4,0
STARLINK-36199,2025-304X,2026-07-02T06:44:38.981472,14.98329621,.00035913,70.0001,245.3558,266.2159,93.8589,0,U,67213,999,3105,.36071818E-3,.4214E-4,0
STARLINK-36203,2025-304Y,2026-07-02T06:32:54.316032,14.98337781,.00036173,69.9999,245.7274,269.5716,90.5029,0,U,67214,999,3104,.24359001E-3,.2815E-4,0
STARLINK-36221,2025-304Z,2026-07-02T06:20:53.583648,14.98341806,.00033139,69.9995,245.6965,269.2558,90.8221,0,U,67215,999,3104,.50181072E-3,.5901E-4,0
STARLINK-36212,2025-304AA,2026-07-02T06:08:51.888768,14.98336371,.00037559,70.0000,245.6672,268.8347,91.2381,0,U,67216,999,3104,.26002818E-3,.3012E-4,0
STARLINK-36216,2025-304AB,2026-07-02T07:32:58.652736,14.98334967,.00036163,70.0000,245.4698,268.1327,91.9418,0,U,67217,999,3104,.22701728E-3,.2617E-4,0
STARLINK-36211,2025-304AC,2026-07-02T07:20:57.358752,14.98333912,.0003797,69.9996,245.4392,267.8232,92.2492,0,U,67218,999,3102,.21155374E-3,.2432E-4,0
STARLINK-36490,2026-002A,2026-07-01T23:51:21.529152,15.27575644,.00014502,43.0038,39.4489,281.3615,78.7073,0,U,67305,999,2862,.7925404E-3,.21608E-3,0
STARLINK-36488,2026-002B,2026-07-01T21:45:55.840320,15.27614818,.0001514,43.0024,40.5201,271.0543,89.0135,0,U,67306,999,2854,.97856884E-3,.26793E-3,0
STARLINK-36481,2026-002C,2026-07-01T21:25:35.546592,15.27588108,.00011863,43.0006,40.4120,273.2876,86.7840,0,U,67307,999,2854,.76019432E-3,.20721E-3,0
STARLINK-36449,2026-002D,2026-07-01T21:14:28.764096,15.27611213,.00014946,42.9997,40.3510,274.0978,85.9703,0,U,67308,999,2860,.8549518E-3,.23361E-3,0
STARLINK-36482,2026-002E,2026-07-01T21:08:55.574592,15.27613105,.00013081,43.0004,40.3204,269.0528,91.0174,0,U,67309,999,2854,.91344125E-3,.24984E-3,0
STARLINK-36491,2026-002F,2026-07-01T23:14:32.274240,15.27610757,.00017351,43.0013,40.1248,279.2918,80.7737,0,U,67310,999,2855,.11932092E-2,.32749E-3,0
STARLINK-36495,2026-002G,2026-07-01T20:54:07.367904,15.27590930,.00011901,43.0021,40.2421,254.8345,105.2375,0,U,67311,999,2870,.94403317E-3,.25815E-3,0
STARLINK-36485,2026-002H,2026-07-01T23:42:04.142880,15.27619282,.00023732,43.0058,39.3963,281.0355,79.0230,0,U,67312,999,2856,.57817628E-3,.15701E-3,0
STARLINK-36445,2026-002J,2026-07-01T21:51:28.930464,15.27586002,.00013241,43.0015,40.5475,279.0566,81.0136,0,U,67313,999,2870,.91500141E-3,.25007E-3,0
STARLINK-36476,2026-002K,2026-07-01T21:20:01.831776,15.27619526,.00006884,42.9998,40.3781,277.4988,82.5785,0,U,67314,999,2853,.12374751E-2,.33989E-3,0
